TIANMU-1 15             
1 58700U 24004A   24023.09884902  .00006961  00000+0  38814-3 0  9999
2 58700  97.4565 207.1131 0010868 190.5910 169.5094 15.13837673  2663
TIANMU-1 16             
1 58701U 24004B   24023.09433845  .00006583  00000+0  36486-3 0  9999
2 58701  97.4491 207.1013 0010878 196.3482 163.7401 15.14073823  2668
TIANMU-1 17             
1 58702U 24004C   24023.15835452  .00006855  00000+0  37569-3 0  9992
2 58702  97.4535 207.1795 0010351 198.9846 161.1001 15.14465493  2669
TIANMU-1 18             
1 58703U 24004D   24023.15378497  .00006649  00000+0  36052-3 0  9991
2 58703  97.4549 207.1890 0010955 208.7897 151.2732 15.14857674  2664
TIANMU-1 11             
1 58645U 23205A   24023.10293716  .00006107  00000+0  34044-3 0  9991
2 58645  97.4191  51.9667 0011715 169.9114 190.2355 15.13889560  4400
TIANMU-1 12             
1 58646U 23205B   24023.17252174  .00006131  00000+0  34406-3 0  9991
2 58646  97.4176  52.0210 0010601 165.6431 194.5104 15.13659579  4402
TIANMU-1 13             
1 58647U 23205C   24023.11394652  .00005479  00000+0  31198-3 0  9993
2 58647  97.4206  51.9584 0011036 158.9467 201.2221 15.13177754  4390
TIANMU-1 14             
1 58648U 23205D   24023.10712079  .00005904  00000+0  33193-3 0  9990
2 58648  97.4131  51.9382 0011306 163.4231 196.7372 15.13599873  4399
KZ-1A R/B               
1 58649U 23205E   24023.05575366  .00479226  23442-5  87590-3 0  9994
2 58649  97.4035  54.4820 0148594 286.3014  72.1957 15.84254599  4557
SHIYAN 24C 01           
1 58650U 23206A   24023.14586575  .00004763  00000+0  32415-3 0  9996
2 58650  97.3353  30.8448 0011895 167.1532 193.0002 15.06695695  4249
SHIYAN 24C 02           
1 58651U 23206B   24023.14504805  .00004058  00000+0  27706-3 0  9997
2 58651  97.3355  30.8470 0010064 187.7018 172.4057 15.06680985  4248
SHIYAN 24C 03           
1 58652U 23206C   24023.14578162  .00003151  00000+0  21585-3 0  9997
2 58652  97.3349  30.8433 0011633 184.9332 175.1784 15.06691206  4236
BEIDOU-3 M25            
1 58654U 23207A   24019.50000000 -.00000068  00000+0  00000+0 0  9996
2 58654  55.0020  92.1740 0003594 252.7320 285.8580  1.86231622   453
BEIDOU-3 M26            
1 58655U 23207B   24005.84694770 -.00000037  00000+0  00000+0 0  9998
2 58655  54.6471  92.7627 0316732  68.9835  87.0455  1.85607573   193
YZ-1 R/B                
1 58656U 23207C   24019.84266534 -.00000054  00000+0  00000+0 0  9996
2 58656  55.0464  92.0262 0027922 330.0079  29.8698  1.79266334   442
CZ-3B R/B               
1 58657U 23207D   24022.39396370  .00056308  00000+0  20798-2 0  9994
2 58657  54.9736  77.8294 5786403 178.8503 183.6321  4.44096872  1200
COSMOS 2574             
1 58658U 23209A   24023.14714626  .00031805  00000+0  23417-3 0  9996
2 58658  96.7555 281.5386 0004285 297.7224  62.3607 15.72991662  4226
SL-4 R/B                
1 58659U 23209B   24022.67532685  .00082358  00000+0  53399-3 0  9998
2 58659  96.7577 281.1645 0001571 248.2549 111.8551 15.75776330  4135
TIANMU-1 19             
1 58660U 23208A   24023.10257541  .00006990  00000+0  39669-3 0  9995
2 58660  97.4000 139.4925 0012016 148.9679 211.2265 15.13190105  4069
TIANMU-1 20             
1 58661U 23208B   24023.16155361  .00007719  00000+0  42647-3 0  9999
2 58661  97.3921 139.5380 0011526 160.7894 199.3775 15.14122809  4073
TIANMU-1 21             
1 58662U 23208C   24023.15938212  .00008006  00000+0  43942-3 0  9992
2 58662  97.3967 139.5574 0010564 161.2994 198.8628 15.14354223  4075
TIANMU-1 22             
1 58663U 23208D   24023.15367662  .00008047  00000+0  43776-3 0  9998
2 58663  97.3980 139.5700 0010949 170.1379 190.0070 15.14666521  4077
STARLINK-31113          
1 58668U 23211B   24022.91667824 -.02204015  00000+0 -68686-1 0  9995
2 58668  42.9998 145.1748 0001359 276.4849 227.8536 15.35982664  5023
STARLINK-31128          
1 58669U 23211C   24023.25001157 -.02175743  00000+0 -60116-1 0  9990
2 58669  42.9999 143.1363 0001381 255.4279 348.5223 15.39602907  4863
STARLINK-31083          
1 58670U 23211D   24022.91667824 -.02200667  00000+0 -71554-1 0  9995
2 58670  42.9998 145.2145 0001317 279.6476 209.2786 15.34664633  4924
STARLINK-30828          
1 58671U 23211E   24022.91667824 -.02176050  00000+0 -45958-1 0  9993
2 58671  42.9999 145.0238 0000831 287.1211 280.3411 15.48033012  4547
STARLINK-31104          
1 58672U 23211F   24022.91667824 -.02200653  00000+0 -73082-1 0  9990
2 58672  42.9999 145.2347 0001260 277.3424 203.3790 15.34006807  5021
STARLINK-31131          
1 58673U 23211G   24022.91667824 -.00910823  00000+0 -58309-2 0  9992
2 58673  42.9970 142.1057 0001718 271.6954  28.7830 15.77805817  5050
STARLINK-31124          
1 58674U 23211H   24022.91667824 -.02203253  00000+0 -67211-1 0  9998
2 58674  43.0000 145.1593 0001179 278.5656 232.9820 15.36639777  4929
STARLINK-31126          
1 58675U 23211J   24022.91667824 -.02196483  00000+0 -78551-1 0  9994
2 58675  42.9998 145.2293 0001358 279.0555 201.5833 15.31670283  4923
STARLINK-31066          
1 58676U 23211K   24022.91667824 -.02205608  00000+0 -57422-1 0  9999
2 58676  42.9996 144.2915 0001240 286.6516 214.9392 15.41428414  5032
STARLINK-31058          
1 58677U 23211L   24022.91667824 -.02209967  00000+0 -66205-1 0  9991
2 58677  42.9998 145.1402 0001149 277.0931 242.1594 15.37205716  4926
STARLINK-31125          
1 58678U 23211M   24022.91667824 -.02166210  00000+0 -45064-1 0  9995
2 58678  42.9999 145.0108 0000954 282.1837 290.5641 15.48442153  4925
STARLINK-31110          
1 58679U 23211N   24022.91667824 -.02209335  00000+0 -61918-1 0  9998
2 58679  42.9998 145.0959 0001281 276.8477 260.7018 15.39227623  5025
STARLINK-31112          
1 58680U 23211P   24022.91667824 -.02210530  00000+0 -59299-1 0  9998
2 58680  42.9999 145.0694 0001195 278.0950 270.2692 15.40544107  4921
STARLINK-31147          
1 58681U 23211Q   24022.91667824 -.02210092  00000+0 -60601-1 0  9991
2 58681  42.9999 145.0827 0001311 273.5855 269.5373 15.39885840  5023
STARLINK-31144          
1 58682U 23211R   24023.00001157 -.02209537  00000+0 -46071-1 0  9991
2 58682  43.0001 144.5107 0001449 278.1303  44.9734 15.48447654  5030
STARLINK-31095          
1 58683U 23211S   24022.91667824 -.02216505  00000+0 -56899-1 0  9992
2 58683  42.9999 145.0475 0001204 275.8164 282.0340 15.41862962  5020
STARLINK-31107          
1 58684U 23211T   24023.25001157 -.02138187  00000+0 -53827-1 0  9999
2 58684  42.9999 143.0803 0001663 257.9921   9.4880 15.42892655  4971
STARLINK-31121          
1 58685U 23211U   24023.25001157 -.02138973  00000+0 -50325-1 0  9993
2 58685  43.0000 143.0547 0001682 257.1826  20.4329 15.44867047  4979
STARLINK-31137          
1 58686U 23211V   24023.00001157 -.02218606  00000+0 -45209-1 0  9994
2 58686  43.0000 144.5063 0001480 283.8098  40.9785 15.49110268  5034
STARLINK-31109          
1 58687U 23211W   24021.81407059  .00107184  00000+0  11787-2 0  9992
2 58687  42.9995 150.9908 0003383 284.6266  75.4223 15.62088206  4855
STARLINK-31139          
1 58688U 23211X   24023.25001157 -.02142786  00000+0 -52756-1 0  9993
2 58688  43.0000 143.0707 0001574 264.3427   6.8465 15.43553816  5073
STARLINK-31106          
1 58689U 23211Y   24022.91667824 -.02221297  00000+0 -54540-1 0  9993
2 58689  42.9999 145.0276 0001354 270.2672 295.7423 15.43181344  4925
HULIANWANG JISHU SHIYAN*
1 58691U 23212A   24023.12131747  .00000035  00000+0  15294-3 0  9997
2 58691  50.0025 333.4612 0007828  22.3151 337.8085 13.86994303  3355
HULIANWANG JISHU SHIYAN*
1 58692U 23212B   24023.11557709  .00000018  00000+0  13876-3 0  9992
2 58692  49.9994 333.4263 0004829   8.9047 351.1935 13.86966710  3356
HULIANWANG JISHU SHIYAN*
1 58693U 23212C   24023.11832395  .00000021  00000+0  14140-3 0  9999
2 58693  50.0008 333.4430 0007005   5.3231 354.7740 13.86992772  3357
XPOSAT                  
1 58694U 24001A   24001.68468223  .00000628  00000+0  00000+0 0  9999
2 58694   5.9870 115.4463 0010488 359.8378  55.4280 14.74838619    62
POEM-3                  
1 58695U 24001B   24004.74596408  .00097489  00000+0  61795-3 0  9990
2 58695   9.6657  72.7054 0007217  17.8593 342.1874 15.74486494   565
OVZON-3                 
1 58698U 24003A   24022.75010417 -.00000255  00000+0  00000+0 0  9991
2 58698  23.2382 291.1845 7316691 186.4042  78.9349  1.43796825    12
FALCON 9 R/B            
1 58699U 24003B   24021.66099763  .00008897  00000+0  49713-2 0  9998
2 58699  26.6515 290.9258 7794945 187.8064 141.5455  1.66410583   300
TIANMU-1 15             
1 58700U 24004A   24023.09884902  .00006961  00000+0  38814-3 0  9999
2 58700  97.4565 207.1131 0010868 190.5910 169.5094 15.13837673  2663
TIANMU-1 16             
1 58701U 24004B   24023.09433845  .00006583  00000+0  36486-3 0  9999
2 58701  97.4491 207.1013 0010878 196.3482 163.7401 15.14073823  2668
TIANMU-1 17             
1 58702U 24004C   24023.15835452  .00006855  00000+0  37569-3 0  9992
2 58702  97.4535 207.1795 0010351 198.9846 161.1001 15.14465493  2669
TIANMU-1 18             
1 58703U 24004D   24023.15378497  .00006649  00000+0  36052-3 0  9991
2 58703  97.4549 207.1890 0010955 208.7897 151.2732 15.14857674  2664
STARLINK-11072 [DTC]    
1 58705U 24002A   24022.97642532  .00068588  00000+0  56685-3 0  9998
2 58705  53.1608 150.4271 0001063  73.8683 286.2452 15.69687072  4290
STARLINK-11075 [DTC]    
1 58706U 24002B   24022.97417766  .00104030  00000+0  85218-3 0  9995
2 58706  53.1607 150.4112 0001013  57.4426 302.6690 15.69727494  4292
STARLINK-11077 [DTC]    
1 58707U 24002C   24022.84221897  .00021692  00000+0  18381-3 0  9999
2 58707  53.1574 151.0039 0001337  54.4429 305.6714 15.69660400  4271
